IRIDIUM 159             
1 43578U 18061K   24345.59303830  .00000208  00000+0  67031-4 0  9992
2 43578  86.3950 288.0318 0002262  87.5535 272.5920 14.34218196334034
IRIDIUM 180             
1 43922U 19002A   24345.38322774  .00000121  00000+0  36232-4 0  9999
2 43922  86.3992 224.9913 0002045  83.8740 276.2689 14.34211667309614
IRIDIUM 176             
1 43923U 19002B   24345.56204449  .00002132  00000+0  33427-3 0  9994
2 43923  86.6118 224.9241 0003168  81.0219 279.1356 14.72242717317793
IRIDIUM 168             
1 43924U 19002C   24345.37686841  .00000636  00000+0  22017-3 0  9994
2 43924  86.4004 225.0528 0002902  74.3643 285.7873 14.34214504309594
IRIDIUM 173             
1 43925U 19002D   24345.43397002  .00000612  00000+0  21139-3 0  9998
2 43925  86.3988 224.9432 0002061  81.3085 278.8344 14.34220869309587
IRIDIUM 169             
1 43926U 19002E   24345.51874357  .00000953  00000+0  30506-3 0  9997
2 43926  86.4221 256.5238 0003292  44.6229 315.5234 14.38601556310627
IRIDIUM 172             
1 43927U 19002F   24345.21832083  .00000536  00000+0  18423-3 0  9996
2 43927  86.3989 225.0394 0002196  87.1130 273.0317 14.34216939309561
IRIDIUM 175             
1 43928U 19002G   24345.55664787  .00002226  00000+0  34893-3 0  9995
2 43928  86.1525 188.1604 0001210  46.9667 313.1650 14.72255382317789
